OBJECT_NAME,OBJECT_ID,EPOCH,MEAN_MOTION,ECCENTRICITY,INCLINATION,RA_OF_ASC_NODE,ARG_OF_PERICENTER,MEAN_ANOMALY,EPHEMERIS_TYPE,CLASSIFICATION_TYPE,NORAD_CAT_ID,ELEMENT_SET_NO,REV_AT_EPOCH,BSTAR,MEAN_MOTION_DOT,MEAN_MOTION_DDOT
DUBAISAT-1,2009-041B,2026-06-15T07:48:37.719648,14.75119995,.00116929,98.0049,299.6036,79.0353,281.2171,0,U,35682,999,90482,.96432837E-4,.6E-5,0
OCEANSAT-2,2009-051A,2026-06-15T15:02:40.588224,13.99664647,.00150826,98.2324,153.6339,240.7265,119.2394,0,U,35931,999,87911,-.44459099E-4,-.103E-5,0
WORLDVIEW-2 (WV-2),2009-055A,2026-06-15T13:31:10.732224,14.37899022,.00036139,98.4737,240.0352,213.5363,146.5596,0,U,35946,999,87541,.49651831E-4,.106E-5,0
SMOS,2009-059A,2026-06-15T12:31:09.154272,14.39771821,.0001321,98.4423,353.8809,89.2597,270.8743,0,U,36036,999,87321,.79796198E-4,.207E-5,0
YAOGAN-7,2009-069A,2026-06-15T14:23:08.140128,14.78008451,.00256478,98.0074,52.4762,46.6195,313.7146,0,U,36110,999,88939,.64707902E-4,.416E-5,0
TANDEM-X,2010-030A,2026-06-15T13:04:49.708992,15.19149123,.0001884,97.4452,174.2763,86.9240,273.2210,0,U,36605,999,88639,.21672042E-4,.388E-5,0
CARTOSAT-2B,2010-035A,2026-06-15T13:55:35.187168,14.78662098,.00110717,97.9957,217.1403,188.8602,171.2415,0,U,36795,999,85961,.17225751E-3,.1211E-4,0
YAOGAN-10,2010-038A,2026-06-15T14:48:11.738592,14.85344335,.00016907,97.8974,190.0333,85.1765,67.5514,0,U,36834,999,85697,.12697745E-3,.1038E-4,0
COSMO-SKYMED 4,2010-060A,2026-06-15T14:54:11.622240,14.82153932,.00014319,97.8879,350.2434,82.5343,277.6033,0,U,37216,999,84433,.8149442E-4,.597E-5,0
RESOURCESAT-2,2011-015A,2026-06-15T12:58:27.038208,14.21606050,.00101696,98.7644,233.9938,260.7696,99.2331,0,U,37387,999,78594,.44422918E-4,.53E-6,0
HAIYANG-2A,2011-043A,2026-06-15T13:58:41.549376,13.74404582,.00060564,99.3385,169.2940,93.8595,266.3247,0,U,37781,999,74643,-.11882199E-3,-.156E-5,0
RASAT,2011-044D,2026-06-15T14:50:50.056224,14.68164834,.00200578,98.0581,258.0393,193.8084,273.6356,0,U,37791,999,79295,.63377558E-4,.316E-5,0
SRMSAT,2011-058D,2026-06-15T02:14:35.216160,14.11575160,.00118389,19.9720,72.1399,180.5594,207.7984,0,U,37841,999,75752,.49298812E-4,.356E-5,0
PLEIADES 1A,2011-076F,2026-06-15T15:00:47.984832,14.58571463,.0001634,98.1983,241.7493,96.1079,13.5937,0,U,38012,999,77176,.14101004E-3,.61E-5,0
ZIYUAN 1-02C (ZY 1-02C),2011-079A,2026-06-15T14:57:14.805792,14.38214305,.00056022,98.4079,233.9642,322.4741,143.4108,0,U,38038,999,75898,.18864946E-3,.53E-5,0
ARIRANG-3 (KOMPSAT-3),2012-025B,2026-06-15T14:17:45.653856,14.62204906,.00066247,98.1170,124.0830,113.3762,246.8137,0,U,38338,999,75111,.80474667E-4,.359E-5,0
EXACTVIEW-1 (ADS-1B),2012-039C,2026-06-15T13:20:06.463104,14.24984117,.00110699,98.9776,283.9090,170.9800,189.1580,0,U,38709,999,72247,.57572018E-4,.88E-6,0
SPOT 6,2012-047A,2026-06-15T14:52:47.943840,14.58562882,.00015172,98.2125,233.9473,91.8962,268.2411,0,U,38755,999,73282,.10442564E-3,.44E-5,0
PLEIADES 1B,2012-068A,2026-06-15T15:20:02.235264,14.58560292,.0001655,98.1954,241.7118,91.7590,268.3799,0,U,39019,999,72062,.94468746E-4,.394E-5,0
GOKTURK 2,2012-073A,2026-06-15T14:08:01.523328,14.75542781,.00016431,97.6815,4.1009,57.4641,302.6728,0,U,39030,999,72427,.11634265E-3,.745E-5,0
LANDSAT 8,2013-008A,2026-06-15T12:20:08.439648,14.57093484,.0001359,98.2302,236.6691,93.7280,266.4074,0,U,39084,999,69765,.70332754E-4,.271E-5,0
SARAL,2013-009A,2026-06-15T13:47:14.027424,14.32855586,.00007864,98.5556,353.1621,319.8133,40.2992,0,U,39086,999,69537,.42131134E-4,.71E-6,0
GAOFEN-1,2013-018A,2026-06-15T15:21:26.883936,14.76537431,.00156717,97.9102,238.7392,271.9678,87.9737,0,U,39150,999,70801,.16522148E-3,.1103E-4,0
VNREDSAT 1,2013-021B,2026-06-15T14:04:12.798336,14.64855902,.00017339,97.9086,220.0641,89.1149,271.0253,0,U,39160,999,70005,.11426141E-3,.565E-5,0
ARIRANG-5 (KOMPSAT-5),2013-042A,2026-06-15T13:40:37.446240,15.04487045,.00052757,97.6203,353.2935,123.8943,236.2785,0,U,39227,999,70361,.81715522E-4,.1083E-4,0
SKYSAT-A,2013-066C,2026-06-15T14:29:37.676256,15.12968987,.00202194,97.3814,216.0516,323.3122,36.6724,0,U,39418,999,68824,.15602931E-3,.27E-4,0
DUBAISAT-2,2013-066D,2026-06-15T14:42:51.218784,15.10170870,.00125776,97.4555,156.7980,45.7737,314.4524,0,U,39419,999,68615,.15868616E-3,.2532E-4,0
GPM-CORE,2014-009C,2026-06-15T12:37:23.726784,15.44540074,.00119331,64.9725,313.6899,250.9253,109.0596,0,U,39574,999,69755,.21764428E-3,.9942E-4,0
SENTINEL-1A,2014-016A,2026-06-15T14:01:52.845024,14.59198608,.00014413,98.1772,174.1405,80.7499,279.3864,0,U,39634,999,64978,-.11610308E-4,-.1E-5,0
KAZEOSAT 1,2014-024A,2026-06-15T15:12:57.676032,14.42080298,.00013951,98.3212,239.1198,73.0247,287.1096,0,U,39731,999,63833,.12691239E-3,.374E-5,0
