DUBAISAT-1              
1 35682U 09041B   26166.32543657  .00000600  00000+0  96433-4 0  9998
2 35682  98.0049 299.6036 0011692  79.0353 281.2171 14.75119995904823
OCEANSAT-2              
1 35931U 09051A   26166.62685866 -.00000103  00000+0 -44459-4 0  9999
2 35931  98.2324 153.6339 0015082 240.7265 119.2394 13.99664647879113
WORLDVIEW-2 (WV-2)      
1 35946U 09055A   26166.56331866  .00000106  00000+0  49652-4 0  9991
2 35946  98.4737 240.0352 0003613 213.5363 146.5596 14.37899022875415
SMOS                    
1 36036U 09059A   26166.52163373  .00000207  00000+0  79796-4 0  9992
2 36036  98.4423 353.8809 0001321  89.2597 270.8743 14.39771821873218
YAOGAN-7                
1 36110U 09069A   26166.59939977  .00000416  00000+0  64708-4 0  9993
2 36110  98.0074  52.4762 0025647  46.6195 313.7146 14.78008451889392
TANDEM-X                
1 36605U 10030A   26166.54501978  .00000388  00000+0  21672-4 0  9994
2 36605  97.4452 174.2763 0001884  86.9240 273.2210 15.19149123886390
CARTOSAT-2B             
1 36795U 10035A   26166.58026837  .00001211  00000+0  17226-3 0  9994
2 36795  97.9957 217.1403 0011071 188.8602 171.2415 14.78662098859610
YAOGAN-10               
1 36834U 10038A   26166.61680253  .00001038  00000+0  12698-3 0  9998
2 36834  97.8974 190.0333 0001690  85.1765  67.5514 14.85344335856970
COSMO-SKYMED 4          
1 37216U 10060A   26166.62096785  .00000597  00000+0  81494-4 0  9990
2 37216  97.8879 350.2434 0001431  82.5343 277.6033 14.82153932844332
RESOURCESAT-2           
1 37387U 11015A   26166.54059072  .00000053  00000+0  44423-4 0  9997
2 37387  98.7644 233.9938 0010169 260.7696  99.2331 14.21606050785943
HAIYANG-2A              
1 37781U 11043A   26166.58242534 -.00000156  00000+0 -11882-3 0  9995
2 37781  99.3385 169.2940 0006056  93.8595 266.3247 13.74404582746434
RASAT                   
1 37791U 11044D   26166.61863491  .00000316  00000+0  63378-4 0  9996
2 37791  98.0581 258.0393 0020057 193.8084 273.6356 14.68164834792956
SRMSAT                  
1 37841U 11058D   26166.09346315  .00000356  00000+0  49299-4 0  9990
2 37841  19.9720  72.1399 0011838 180.5594 207.7984 14.11575160757521
PLEIADES 1A             
1 38012U 11076F   26166.62555538  .00000610  00000+0  14101-3 0  9995
2 38012  98.1983 241.7493 0001634  96.1079  13.5937 14.58571463771760
ZIYUAN 1-02C (ZY 1-02C) 
1 38038U 11079A   26166.62308803  .00000530  00000+0  18865-3 0  9999
2 38038  98.4079 233.9642 0005602 322.4741 143.4108 14.38214305758985
ARIRANG-3 (KOMPSAT-3)   
1 38338U 12025B   26166.59566729  .00000359  00000+0  80475-4 0  9999
2 38338  98.1170 124.0830 0006624 113.3762 246.8137 14.62204906751112
EXACTVIEW-1 (ADS-1B)    
1 38709U 12039C   26166.55563036  .00000088  00000+0  57572-4 0  9991
2 38709  98.9776 283.9090 0011069 170.9800 189.1580 14.24984117722473
SPOT 6                  
1 38755U 12047A   26166.61999935  .00000440  00000+0  10443-3 0  9996
2 38755  98.2125 233.9473 0001517  91.8962 268.2411 14.58562882732822
PLEIADES 1B             
1 39019U 12068A   26166.63891476  .00000394  00000+0  94469-4 0  9995
2 39019  98.1954 241.7118 0001655  91.7590 268.3799 14.58560292720625
GOKTURK 2               
1 39030U 12073A   26166.58890652  .00000745  00000+0  11634-3 0  9995
2 39030  97.6815   4.1009 0001643  57.4641 302.6728 14.75542781724272
LANDSAT 8               
1 39084U 13008A   26166.51398657  .00000271  00000+0  70333-4 0  9990
2 39084  98.2302 236.6691 0001359  93.7280 266.4074 14.57093484697657
SARAL                   
1 39086U 13009A   26166.57446791  .00000071  00000+0  42131-4 0  9995
2 39086  98.5556 353.1621 0000786 319.8133  40.2992 14.32855586695379
GAOFEN-1                
1 39150U 13018A   26166.63989449  .00001103  00000+0  16522-3 0  9997
2 39150  97.9102 238.7392 0015671 271.9678  87.9737 14.76537431708010
VNREDSAT 1              
1 39160U 13021B   26166.58625924  .00000565  00000+0  11426-3 0  9990
2 39160  97.9086 220.0641 0001733  89.1149 271.0253 14.64855902700057
ARIRANG-5 (KOMPSAT-5)   
1 39227U 13042A   26166.56987785  .00001083  00000+0  81716-4 0  9997
2 39227  97.6203 353.2935 0005275 123.8943 236.2785 15.04487045703619
SKYSAT-A                
1 39418U 13066C   26166.60390829  .00002700  00000+0  15603-3 0  9995
2 39418  97.3814 216.0516 0020219 323.3122  36.6724 15.12968987688242
DUBAISAT-2              
1 39419U 13066D   26166.61309281  .00002532  00000+0  15869-3 0  9996
2 39419  97.4555 156.7980 0012577  45.7737 314.4524 15.10170870686153
GPM-CORE                
1 39574U 14009C   26166.52596906  .00009942  00000+0  21764-3 0  9991
2 39574  64.9725 313.6899 0011933 250.9253 109.0596 15.44540074697551
SENTINEL-1A             
1 39634U 14016A   26166.58463941 -.00000100  00000+0 -11610-4 0  9993
2 39634  98.1772 174.1405 0001441  80.7499 279.3864 14.59198608649784
KAZEOSAT 1              
1 39731U 14024A   26166.63400088  .00000374  00000+0  12691-3 0  9999
2 39731  98.3212 239.1198 0001395  73.0247 287.1096 14.42080298638338
